CCSDS_OMM_VERS = 2.0
CREATION_DATE  = 
ORIGINATOR     = 

OBJECT_NAME    = CONNECTA IOT-13
OBJECT_ID      = 2026-004AP
CENTER_NAME    = EARTH
REF_FRAME      = TEME
TIME_SYSTEM    = UTC
MEAN_ELEMENT_THEORY = SGP/SGP4

EPOCH          = 2026-02-02T05:34:23.517696
MEAN_MOTION    = 15.18352115
ECCENTRICITY   = .00109632
INCLINATION    = 97.4539
RA_OF_ASC_NODE = 34.2879
ARG_OF_PERICENTER = 95.5396
MEAN_ANOMALY   = 264.7089

EPHEMERIS_TYPE = 0
CLASSIFICATION_TYPE = U
NORAD_CAT_ID   = 67400
ELEMENT_SET_NO = 999
REV_AT_EPOCH   = 328
BSTAR          = .4427493E-3
MEAN_MOTION_DOT = .9044E-4
MEAN_MOTION_DDOT = 0

CCSDS_OMM_VERS = 2.0
CREATION_DATE  = 
ORIGINATOR     = 

OBJECT_NAME    = CONNECTA IOT-14
OBJECT_ID      = 2026-004AQ
CENTER_NAME    = EARTH
REF_FRAME      = TEME
TIME_SYSTEM    = UTC
MEAN_ELEMENT_THEORY = SGP/SGP4

EPOCH          = 2026-02-01T23:12:39.746880
MEAN_MOTION    = 15.18459217
ECCENTRICITY   = .00118377
INCLINATION    = 97.4483
RA_OF_ASC_NODE = 34.0135
ARG_OF_PERICENTER = 91.1290
MEAN_ANOMALY   = 269.1300

EPHEMERIS_TYPE = 0
CLASSIFICATION_TYPE = U
NORAD_CAT_ID   = 67401
ELEMENT_SET_NO = 999
REV_AT_EPOCH   = 324
BSTAR          = .64997479E-3
MEAN_MOTION_DOT = .13361E-3
MEAN_MOTION_DDOT = 0

CCSDS_OMM_VERS = 2.0
CREATION_DATE  = 
ORIGINATOR     = 

OBJECT_NAME    = CONNECTA IOT-15
OBJECT_ID      = 2026-004AR
CENTER_NAME    = EARTH
REF_FRAME      = TEME
TIME_SYSTEM    = UTC
MEAN_ELEMENT_THEORY = SGP/SGP4

EPOCH          = 2026-02-02T06:04:39.312192
MEAN_MOTION    = 15.16828352
ECCENTRICITY   = .00049259
INCLINATION    = 97.4546
RA_OF_ASC_NODE = 34.2618
ARG_OF_PERICENTER = 78.3407
MEAN_ANOMALY   = 281.8378

EPHEMERIS_TYPE = 0
CLASSIFICATION_TYPE = U
NORAD_CAT_ID   = 67402
ELEMENT_SET_NO = 999
REV_AT_EPOCH   = 327
BSTAR          = .47210365E-3
MEAN_MOTION_DOT = .9224E-4
MEAN_MOTION_DDOT = 0

CCSDS_OMM_VERS = 2.0
CREATION_DATE  = 
ORIGINATOR     = 

OBJECT_NAME    = SHIJIAN-29B (SJ-29B)
OBJECT_ID      = 2025-315C
CENTER_NAME    = EARTH
REF_FRAME      = TEME
TIME_SYSTEM    = UTC
MEAN_ELEMENT_THEORY = SGP/SGP4

EPOCH          = 2026-02-02T01:49:00.969888
MEAN_MOTION    = 1.00271439
ECCENTRICITY   = .0001778
INCLINATION    = 3.0558
RA_OF_ASC_NODE = 98.6498
ARG_OF_PERICENTER = 309.1078
MEAN_ANOMALY   = 184.8594

EPHEMERIS_TYPE = 0
CLASSIFICATION_TYPE = U
NORAD_CAT_ID   = 67403
ELEMENT_SET_NO = 999
REV_AT_EPOCH   = 33
BSTAR          = 0
MEAN_MOTION_DOT = -.78E-6
MEAN_MOTION_DDOT = 0

CCSDS_OMM_VERS = 2.0
CREATION_DATE  = 
ORIGINATOR     = 

OBJECT_NAME    = STARLINK-36484
OBJECT_ID      = 2026-005A
CENTER_NAME    = EARTH
REF_FRAME      = TEME
TIME_SYSTEM    = UTC
MEAN_ELEMENT_THEORY = SGP/SGP4

EPOCH          = 2026-02-02T06:00:02.000160
MEAN_MOTION    = 15.50594488
ECCENTRICITY   = .00010314
INCLINATION    = 43.0001
RA_OF_ASC_NODE = 81.5584
ARG_OF_PERICENTER = 281.8406
MEAN_ANOMALY   = 197.5240

EPHEMERIS_TYPE = 0
CLASSIFICATION_TYPE = U
NORAD_CAT_ID   = 67404
ELEMENT_SET_NO = 999
REV_AT_EPOCH   = 444
BSTAR          = -.39579793E-1
MEAN_MOTION_DOT = -.2066908E-1
MEAN_MOTION_DDOT = 0

CCSDS_OMM_VERS = 2.0
CREATION_DATE  = 
ORIGINATOR     = 

OBJECT_NAME    = STARLINK-36452
OBJECT_ID      = 2026-005B
CENTER_NAME    = EARTH
REF_FRAME      = TEME
TIME_SYSTEM    = UTC
MEAN_ELEMENT_THEORY = SGP/SGP4

EPOCH          = 2026-02-02T06:00:02.000160
MEAN_MOTION    = 15.50524274
ECCENTRICITY   = .00009685
INCLINATION    = 42.9998
RA_OF_ASC_NODE = 81.5524
ARG_OF_PERICENTER = 267.1557
MEAN_ANOMALY   = 214.1677

EPHEMERIS_TYPE = 0
CLASSIFICATION_TYPE = U
NORAD_CAT_ID   = 67405
ELEMENT_SET_NO = 999
REV_AT_EPOCH   = 444
BSTAR          = .10192979E-2
MEAN_MOTION_DOT = .59796E-3
MEAN_MOTION_DDOT = 0

CCSDS_OMM_VERS = 2.0
CREATION_DATE  = 
ORIGINATOR     = 

OBJECT_NAME    = STARLINK-36409
OBJECT_ID      = 2026-005C
CENTER_NAME    = EARTH
REF_FRAME      = TEME
TIME_SYSTEM    = UTC
MEAN_ELEMENT_THEORY = SGP/SGP4

EPOCH          = 2026-02-02T06:00:02.000160
MEAN_MOTION    = 15.50569781
ECCENTRICITY   = .00019426
INCLINATION    = 42.9999
RA_OF_ASC_NODE = 81.5474
ARG_OF_PERICENTER = 301.1476
MEAN_ANOMALY   = 181.9573

EPHEMERIS_TYPE = 0
CLASSIFICATION_TYPE = U
NORAD_CAT_ID   = 67406
ELEMENT_SET_NO = 999
REV_AT_EPOCH   = 449
BSTAR          = .12899548E-2
MEAN_MOTION_DOT = .76049E-3
MEAN_MOTION_DDOT = 0

CCSDS_OMM_VERS = 2.0
CREATION_DATE  = 
ORIGINATOR     = 

OBJECT_NAME    = STARLINK-36510
OBJECT_ID      = 2026-005D
CENTER_NAME    = EARTH
REF_FRAME      = TEME
TIME_SYSTEM    = UTC
MEAN_ELEMENT_THEORY = SGP/SGP4

EPOCH          = 2026-02-02T06:00:02.000160
MEAN_MOTION    = 15.50570169
ECCENTRICITY   = .00020002
INCLINATION    = 43.0001
RA_OF_ASC_NODE = 81.5424
ARG_OF_PERICENTER = 299.2384
MEAN_ANOMALY   = 185.7921

EPHEMERIS_TYPE = 0
CLASSIFICATION_TYPE = U
NORAD_CAT_ID   = 67407
ELEMENT_SET_NO = 999
REV_AT_EPOCH   = 449
BSTAR          = .13780421E-2
MEAN_MOTION_DOT = .81322E-3
MEAN_MOTION_DDOT = 0

CCSDS_OMM_VERS = 2.0
CREATION_DATE  = 
ORIGINATOR     = 

OBJECT_NAME    = STARLINK-36509
OBJECT_ID      = 2026-005E
CENTER_NAME    = EARTH
REF_FRAME      = TEME
TIME_SYSTEM    = UTC
MEAN_ELEMENT_THEORY = SGP/SGP4

EPOCH          = 2026-02-02T06:00:02.000160
MEAN_MOTION    = 15.50529360
ECCENTRICITY   = .00009376
INCLINATION    = 42.9997
RA_OF_ASC_NODE = 81.5372
ARG_OF_PERICENTER = 269.2790
MEAN_ANOMALY   = 217.7944

EPHEMERIS_TYPE = 0
CLASSIFICATION_TYPE = U
NORAD_CAT_ID   = 67408
ELEMENT_SET_NO = 999
REV_AT_EPOCH   = 449
BSTAR          = .81670309E-3
MEAN_MOTION_DOT = .47778E-3
MEAN_MOTION_DDOT = 0

CCSDS_OMM_VERS = 2.0
CREATION_DATE  = 
ORIGINATOR     = 

OBJECT_NAME    = STARLINK-36507
OBJECT_ID      = 2026-005F
CENTER_NAME    = EARTH
REF_FRAME      = TEME
TIME_SYSTEM    = UTC
MEAN_ELEMENT_THEORY = SGP/SGP4

EPOCH          = 2026-02-02T06:00:02.000160
MEAN_MOTION    = 15.50572013
ECCENTRICITY   = .00018566
INCLINATION    = 43.0000
RA_OF_ASC_NODE = 81.5330
ARG_OF_PERICENTER = 300.6653
MEAN_ANOMALY   = 188.1761

EPHEMERIS_TYPE = 0
CLASSIFICATION_TYPE = U
NORAD_CAT_ID   = 67409
ELEMENT_SET_NO = 999
REV_AT_EPOCH   = 449
BSTAR          = .11007847E-2
MEAN_MOTION_DOT = .64757E-3
MEAN_MOTION_DDOT = 0

CCSDS_OMM_VERS = 2.0
CREATION_DATE  = 
ORIGINATOR     = 

OBJECT_NAME    = STARLINK-36508
OBJECT_ID      = 2026-005G
CENTER_NAME    = EARTH
REF_FRAME      = TEME
TIME_SYSTEM    = UTC
MEAN_ELEMENT_THEORY = SGP/SGP4

EPOCH          = 2026-02-02T06:00:02.000160
MEAN_MOTION    = 15.50609296
ECCENTRICITY   = .00012975
INCLINATION    = 42.9999
RA_OF_ASC_NODE = 81.5279
ARG_OF_PERICENTER = 277.4040
MEAN_ANOMALY   = 213.4702

EPHEMERIS_TYPE = 0
CLASSIFICATION_TYPE = U
NORAD_CAT_ID   = 67410
ELEMENT_SET_NO = 999
REV_AT_EPOCH   = 449
BSTAR          = -.12020404E-2
MEAN_MOTION_DOT = -.70304E-3
MEAN_MOTION_DDOT = 0

CCSDS_OMM_VERS = 2.0
CREATION_DATE  = 
ORIGINATOR     = 

OBJECT_NAME    = STARLINK-36503
OBJECT_ID      = 2026-005H
CENTER_NAME    = EARTH
REF_FRAME      = TEME
TIME_SYSTEM    = UTC
MEAN_ELEMENT_THEORY = SGP/SGP4

EPOCH          = 2026-02-02T06:00:02.000160
MEAN_MOTION    = 15.50522355
ECCENTRICITY   = .00009762
INCLINATION    = 42.9998
RA_OF_ASC_NODE = 81.5229
ARG_OF_PERICENTER = 268.0462
MEAN_ANOMALY   = 224.7769

EPHEMERIS_TYPE = 0
CLASSIFICATION_TYPE = U
NORAD_CAT_ID   = 67411
ELEMENT_SET_NO = 999
REV_AT_EPOCH   = 423
BSTAR          = .11296966E-2
MEAN_MOTION_DOT = .66361E-3
MEAN_MOTION_DDOT = 0

