CONNECTA IOT-13         
1 67400U 26004AP  26033.23221664  .00009044  00000+0  44275-3 0  9990
2 67400  97.4539  34.2879 0010963  95.5396 264.7089 15.18352115  3286
CONNECTA IOT-14         
1 67401U 26004AQ  26032.96712670  .00013361  00000+0  64997-3 0  9992
2 67401  97.4483  34.0135 0011837  91.1290 269.1300 15.18459217  3246
CONNECTA IOT-15         
1 67402U 26004AR  26033.25323278  .00009224  00000+0  47210-3 0  9990
2 67402  97.4546  34.2618 0004925  78.3407 281.8378 15.16828352  3279
SHIJIAN-29B (SJ-29B)    
1 67403U 25315C   26033.07570567 -.00000078  00000+0  00000+0 0  9991
2 67403   3.0558  98.6498 0001778 309.1078 184.8594  1.00271439   330
STARLINK-36484          
1 67404U 26005A   26033.25002315 -.02066908  00000+0 -39580-1 0  9994
2 67404  43.0001  81.5584 0001031 281.8406 197.5240 15.50594488  4445
STARLINK-36452          
1 67405U 26005B   26033.25002315  .00059796  00000+0  10193-2 0  9998
2 67405  42.9998  81.5524 0000968 267.1557 214.1677 15.50524274  4441
STARLINK-36409          
1 67406U 26005C   26033.25002315  .00076049  00000+0  12900-2 0  9997
2 67406  42.9999  81.5474 0001942 301.1476 181.9573 15.50569781  4492
STARLINK-36510          
1 67407U 26005D   26033.25002315  .00081322  00000+0  13780-2 0  9995
2 67407  43.0001  81.5424 0002000 299.2384 185.7921 15.50570169  4496
STARLINK-36509          
1 67408U 26005E   26033.25002315  .00047778  00000+0  81670-3 0  9997
2 67408  42.9997  81.5372 0000937 269.2790 217.7944 15.50529360  4494
STARLINK-36507          
1 67409U 26005F   26033.25002315  .00064757  00000+0  11008-2 0  9991
2 67409  43.0000  81.5330 0001856 300.6653 188.1761 15.50572013  4496
STARLINK-36508          
1 67410U 26005G   26033.25002315 -.00070304  00000+0 -12020-2 0  9995
2 67410  42.9999  81.5279 0001297 277.4040 213.4702 15.50609296  4496
STARLINK-36503          
1 67411U 26005H   26033.25002315  .00066361  00000+0  11297-2 0  9997
2 67411  42.9998  81.5229 0000976 268.0462 224.7769 15.50522355  4238
